<?xml version="1.0" encoding="UTF-8"?>
<kml xmlns="http://www.opengis.net/kml/2.2" xmlns:gx="http://www.google.com/kml/ext/2.2">
    <Document id="130">
        <Style id="133">
            <IconStyle id="134">
                <color>ff8070f8</color>
                <colorMode>normal</colorMode>
                <scale>1</scale>
                <heading>0</heading>
                <Icon id="135">
                    <href>http://maps.google.com/mapfiles/kml/pushpin/ylw-pushpin.png</href>
                </Icon>
            </IconStyle>
        </Style>
        <Placemark id="132">
            <name/>
            <styleUrl>#133</styleUrl>
            <Point id="131">
                <coordinates>131.0132068944276,31.22265631588281,0.0</coordinates>
            </Point>
        </Placemark>
    </Document>
</kml>
