<?xml version="1.0" encoding="UTF-8"?>
<kml xmlns="http://www.opengis.net/kml/2.2" xmlns:gx="http://www.google.com/kml/ext/2.2">
    <Document id="721">
        <Style id="728">
            <LineStyle id="729">
                <color>ff8070f8</color>
                <colorMode>normal</colorMode>
                <width>3</width>
            </LineStyle>
            <PolyStyle id="730">
                <colorMode>normal</colorMode>
                <fill>0</fill>
                <outline>1</outline>
            </PolyStyle>
        </Style>
        <Style id="737">
            <LineStyle id="738">
                <color>ff816df7</color>
                <colorMode>normal</colorMode>
                <width>3</width>
            </LineStyle>
            <PolyStyle id="739">
                <colorMode>normal</colorMode>
                <fill>0</fill>
                <outline>1</outline>
            </PolyStyle>
        </Style>
        <Style id="746">
            <LineStyle id="747">
                <color>ff826bf7</color>
                <colorMode>normal</colorMode>
                <width>3</width>
            </LineStyle>
            <PolyStyle id="748">
                <colorMode>normal</colorMode>
                <fill>0</fill>
                <outline>1</outline>
            </PolyStyle>
        </Style>
        <Style id="755">
            <LineStyle id="756">
                <color>ff8468f7</color>
                <colorMode>normal</colorMode>
                <width>3</width>
            </LineStyle>
            <PolyStyle id="757">
                <colorMode>normal</colorMode>
                <fill>0</fill>
                <outline>1</outline>
            </PolyStyle>
        </Style>
        <Style id="764">
            <LineStyle id="765">
                <color>ff8566f7</color>
                <colorMode>normal</colorMode>
                <width>3</width>
            </LineStyle>
            <PolyStyle id="766">
                <colorMode>normal</colorMode>
                <fill>0</fill>
                <outline>1</outline>
            </PolyStyle>
        </Style>
        <Style id="773">
            <LineStyle id="774">
                <color>ff8664f7</color>
                <colorMode>normal</colorMode>
                <width>3</width>
            </LineStyle>
            <PolyStyle id="775">
                <colorMode>normal</colorMode>
                <fill>0</fill>
                <outline>1</outline>
            </PolyStyle>
        </Style>
        <Style id="782">
            <LineStyle id="783">
                <color>ff8861f7</color>
                <colorMode>normal</colorMode>
                <width>3</width>
            </LineStyle>
            <PolyStyle id="784">
                <colorMode>normal</colorMode>
                <fill>0</fill>
                <outline>1</outline>
            </PolyStyle>
        </Style>
        <Style id="791">
            <LineStyle id="792">
                <color>ff895ff7</color>
                <colorMode>normal</colorMode>
                <width>3</width>
            </LineStyle>
            <PolyStyle id="793">
                <colorMode>normal</colorMode>
                <fill>0</fill>
                <outline>1</outline>
            </PolyStyle>
        </Style>
        <Style id="800">
            <LineStyle id="801">
                <color>ff8b5df7</color>
                <colorMode>normal</colorMode>
                <width>3</width>
            </LineStyle>
            <PolyStyle id="802">
                <colorMode>normal</colorMode>
                <fill>0</fill>
                <outline>1</outline>
            </PolyStyle>
        </Style>
        <Placemark id="723">
            <name>(1.0,)</name>
            <styleUrl>#728</styleUrl>
            <Polygon id="722">
                <altitudeMode>clampToGround</altitudeMode>
                <outerBoundaryIs>
                    <LinearRing id="726">
                        <coordinates>131.01399261900778,31.22022490943572,0.0 131.0140091486377,31.22014185296176,0.0 131.01410552775877,31.22018410714749,0.0 131.01422521454444,31.22031776337989,0.0 131.01430093805433,31.22047300983712,0.0 131.01429548809168,31.22056518085564,0.0 131.01420280781542,31.220535649684926,0.0 131.01407216459992,31.22039281847681,0.0 131.01399261900778,31.22022490943572,0.0</coordinates>
                    </LinearRing>
                </outerBoundaryIs>
            </Polygon>
        </Placemark>
        <Placemark id="732">
            <name>(2.0,)</name>
            <styleUrl>#737</styleUrl>
            <Polygon id="731">
                <altitudeMode>clampToGround</altitudeMode>
                <outerBoundaryIs>
                    <LinearRing id="735">
                        <coordinates>131.01378821445874,31.22010404591033,0.0 131.01383675468085,31.21994813640183,0.0 131.0140344726717,31.22004065546143,0.0 131.01426026899892,31.2202984137954,0.0 131.0144088610522,31.22059388288593,0.0 131.01440350512334,31.22078555526613,0.0 131.01422043089815,31.220742649732514,0.0 131.01395343233384,31.22044812166536,0.0 131.01378821445874,31.22010404591033,0.0</coordinates>
                    </LinearRing>
                </outerBoundaryIs>
            </Polygon>
        </Placemark>
        <Placemark id="741">
            <name>(3.0,)</name>
            <styleUrl>#746</styleUrl>
            <Polygon id="740">
                <altitudeMode>clampToGround</altitudeMode>
                <outerBoundaryIs>
                    <LinearRing id="744">
                        <coordinates>131.0135565318446,31.219988288515943,0.0 131.01365077471945,31.219772814281967,0.0 131.01395002832652,31.21992168169136,0.0 131.01427809016923,31.22028782763324,0.0 131.01449160539795,31.22071054770593,0.0 131.014486401631,31.221006824512823,0.0 131.01421922180043,31.22096683311954,0.0 131.0138007382803,31.22051976727614,0.0 131.0135565318446,31.219988288515943,0.0</coordinates>
                    </LinearRing>
                </outerBoundaryIs>
            </Polygon>
        </Placemark>
        <Placemark id="750">
            <name>(4.0,)</name>
            <styleUrl>#755</styleUrl>
            <Polygon id="749">
                <altitudeMode>clampToGround</altitudeMode>
                <outerBoundaryIs>
                    <LinearRing id="753">
                        <coordinates>131.01329695509608,31.21988333364504,0.0 131.01345504183126,31.21961897101136,0.0 131.01386267569345,31.219820978786192,0.0 131.01427451602856,31.22028809030457,0.0 131.01454273293683,31.22082496712212,0.0 131.0145482944816,31.22122341292023,0.0 131.01419606478672,31.22120518547784,0.0 131.01360802580209,31.220610852765063,0.0 131.01329695509608,31.21988333364504,0.0</coordinates>
                    </LinearRing>
                </outerBoundaryIs>
            </Polygon>
        </Placemark>
        <Placemark id="759">
            <name>(5.0,)</name>
            <styleUrl>#764</styleUrl>
            <Polygon id="758">
                <altitudeMode>clampToGround</altitudeMode>
                <outerBoundaryIs>
                    <LinearRing id="762">
                        <coordinates>131.0130176333005,31.21978966950554,0.0 131.01325337617797,31.219488872627945,0.0 131.01376513804425,31.219743353815804,0.0 131.0142637967286,31.220292059132785,0.0 131.01457165217803,31.22093354884157,0.0 131.01457961873183,31.22143407174105,0.0 131.0141488297608,31.22145328593455,0.0 131.01338427723536,31.220716991196287,0.0 131.0130176333005,31.21978966950554,0.0</coordinates>
                    </LinearRing>
                </outerBoundaryIs>
            </Polygon>
        </Placemark>
        <Placemark id="768">
            <name>(6.0,)</name>
            <styleUrl>#773</styleUrl>
            <Polygon id="767">
                <altitudeMode>clampToGround</altitudeMode>
                <outerBoundaryIs>
                    <LinearRing id="771">
                        <coordinates>131.01272127704135,31.219712812389258,0.0 131.01305373806193,31.219379324770564,0.0 131.01366455285083,31.219683601266965,0.0 131.01423118644774,31.22030712362529,0.0 131.01458481787466,31.221034712504927,0.0 131.01459010520082,31.22163349692024,0.0 131.01407907521553,31.22170522590603,0.0 131.01313915217636,31.22083366879169,0.0 131.01272127704135,31.219712812389258,0.0</coordinates>
                    </LinearRing>
                </outerBoundaryIs>
            </Polygon>
        </Placemark>
        <Placemark id="777">
            <name>(7.0,)</name>
            <styleUrl>#782</styleUrl>
            <Polygon id="776">
                <altitudeMode>clampToGround</altitudeMode>
                <outerBoundaryIs>
                    <LinearRing id="780">
                        <coordinates>131.012418859004,31.219650695428427,0.0 131.01285444141175,31.21929517199426,0.0 131.01356485724034,31.21963790995825,0.0 131.01419552865056,31.220323828413942,0.0 131.0145807761459,31.22112957255616,0.0 131.0145787614543,31.22181996334348,0.0 131.01399152709868,31.22195478029788,0.0 131.01340637550518,31.22055001508096,0.0 131.012418859004,31.219650695428427,0.0</coordinates>
                    </LinearRing>
                </outerBoundaryIs>
            </Polygon>
        </Placemark>
        <Placemark id="786">
            <name>(8.0,)</name>
            <styleUrl>#791</styleUrl>
            <Polygon id="785">
                <altitudeMode>clampToGround</altitudeMode>
                <outerBoundaryIs>
                    <LinearRing id="789">
                        <coordinates>131.01211569610882,31.21960639236948,0.0 131.01266532578526,31.219227258403627,0.0 131.01346129801732,31.219609251165608,0.0 131.01415296217897,31.220344103593487,0.0 131.0145615033017,31.22121818295665,0.0 131.0145503988119,31.221991654411703,0.0 131.01388316418988,31.222196744530336,0.0 131.01215309475222,31.22099537772637,0.0 131.01211569610882,31.21960639236948,0.0</coordinates>
                    </LinearRing>
                </outerBoundaryIs>
            </Polygon>
        </Placemark>
        <Placemark id="795">
            <name>(9.0,)</name>
            <styleUrl>#800</styleUrl>
            <Polygon id="794">
                <altitudeMode>clampToGround</altitudeMode>
                <outerBoundaryIs>
                    <LinearRing id="798">
                        <coordinates>131.01181986651324,31.21957856795754,0.0 131.0124798167858,31.219184797243788,0.0 131.01336302684027,31.219588998858043,0.0 131.0141014801796,31.22036895167476,0.0 131.01453270936966,31.22129983963444,0.0 131.01450659423625,31.22214793405396,0.0 131.01376470391278,31.22242554626007,0.0 131.01211329871109,31.22151538586818,0.0 131.01181986651324,31.21957856795754,0.0</coordinates>
                    </LinearRing>
                </outerBoundaryIs>
            </Polygon>
        </Placemark>
    </Document>
</kml>
