<?xml version="1.0" encoding="UTF-8"?>
<kml xmlns="http://www.opengis.net/kml/2.2" xmlns:gx="http://www.google.com/kml/ext/2.2">
    <Document id="1355">
        <Style id="1362">
            <LineStyle id="1363">
                <color>ff8070f8</color>
                <colorMode>normal</colorMode>
                <width>3</width>
            </LineStyle>
            <PolyStyle id="1364">
                <colorMode>normal</colorMode>
                <fill>0</fill>
                <outline>1</outline>
            </PolyStyle>
        </Style>
        <Style id="1371">
            <LineStyle id="1372">
                <color>ff816df7</color>
                <colorMode>normal</colorMode>
                <width>3</width>
            </LineStyle>
            <PolyStyle id="1373">
                <colorMode>normal</colorMode>
                <fill>0</fill>
                <outline>1</outline>
            </PolyStyle>
        </Style>
        <Style id="1380">
            <LineStyle id="1381">
                <color>ff836af7</color>
                <colorMode>normal</colorMode>
                <width>3</width>
            </LineStyle>
            <PolyStyle id="1382">
                <colorMode>normal</colorMode>
                <fill>0</fill>
                <outline>1</outline>
            </PolyStyle>
        </Style>
        <Style id="1389">
            <LineStyle id="1390">
                <color>ff8467f7</color>
                <colorMode>normal</colorMode>
                <width>3</width>
            </LineStyle>
            <PolyStyle id="1391">
                <colorMode>normal</colorMode>
                <fill>0</fill>
                <outline>1</outline>
            </PolyStyle>
        </Style>
        <Style id="1398">
            <LineStyle id="1399">
                <color>ff8665f7</color>
                <colorMode>normal</colorMode>
                <width>3</width>
            </LineStyle>
            <PolyStyle id="1400">
                <colorMode>normal</colorMode>
                <fill>0</fill>
                <outline>1</outline>
            </PolyStyle>
        </Style>
        <Style id="1407">
            <LineStyle id="1408">
                <color>ff8762f7</color>
                <colorMode>normal</colorMode>
                <width>3</width>
            </LineStyle>
            <PolyStyle id="1409">
                <colorMode>normal</colorMode>
                <fill>0</fill>
                <outline>1</outline>
            </PolyStyle>
        </Style>
        <Style id="1416">
            <LineStyle id="1417">
                <color>ff895ff7</color>
                <colorMode>normal</colorMode>
                <width>3</width>
            </LineStyle>
            <PolyStyle id="1418">
                <colorMode>normal</colorMode>
                <fill>0</fill>
                <outline>1</outline>
            </PolyStyle>
        </Style>
        <Style id="1425">
            <LineStyle id="1426">
                <color>ff8b5df7</color>
                <colorMode>normal</colorMode>
                <width>3</width>
            </LineStyle>
            <PolyStyle id="1427">
                <colorMode>normal</colorMode>
                <fill>0</fill>
                <outline>1</outline>
            </PolyStyle>
        </Style>
        <Placemark id="1357">
            <name>(1.0,)</name>
            <styleUrl>#1362</styleUrl>
            <Polygon id="1356">
                <altitudeMode>clampToGround</altitudeMode>
                <outerBoundaryIs>
                    <LinearRing id="1360">
                        <coordinates>131.01355962649467,31.220498214814818,0.0 131.013567839054,31.22043807512484,0.0 131.0136357556676,31.22046805263588,0.0 131.01372216160823,31.220566490925208,0.0 131.01377887619384,31.22067947443292,0.0 131.01377525823062,31.2207444921922,0.0 131.01371002546577,31.220720330248973,0.0 131.0136207484196,31.220616163299866,0.0 131.01355962649467,31.220498214814818,0.0</coordinates>
                    </LinearRing>
                </outerBoundaryIs>
            </Polygon>
        </Placemark>
        <Placemark id="1366">
            <name>(2.0,)</name>
            <styleUrl>#1371</styleUrl>
            <Polygon id="1365">
                <altitudeMode>clampToGround</altitudeMode>
                <outerBoundaryIs>
                    <LinearRing id="1369">
                        <coordinates>131.0134181557434,31.220411411322285,0.0 131.0134392139909,31.22029818301656,0.0 131.01357734381608,31.2203628528234,0.0 131.013744815094,31.220553235168,0.0 131.01385441010956,31.22077180480112,0.0 131.0138506571036,31.22090531326713,0.0 131.01372480951943,31.22086389150784,0.0 131.0135412079166,31.22065233328327,0.0 131.0134181557434,31.220411411322285,0.0</coordinates>
                    </LinearRing>
                </outerBoundaryIs>
            </Polygon>
        </Placemark>
        <Placemark id="1375">
            <name>(3.0,)</name>
            <styleUrl>#1380</styleUrl>
            <Polygon id="1374">
                <altitudeMode>clampToGround</altitudeMode>
                <outerBoundaryIs>
                    <LinearRing id="1378">
                        <coordinates>131.01325567285053,31.220331762931497,0.0 131.01329773737817,31.22017231457469,0.0 131.01351240296952,31.22027018612287,0.0 131.01375850809467,31.22054462198871,0.0 131.01391422422716,31.22086296579753,0.0 131.0139058433545,31.221068375261822,0.0 131.01372376902435,31.221018864280342,0.0 131.01343967638127,31.220699024193564,0.0 131.01325567285053,31.220331762931497,0.0</coordinates>
                    </LinearRing>
                </outerBoundaryIs>
            </Polygon>
        </Placemark>
        <Placemark id="1384">
            <name>(4.0,)</name>
            <styleUrl>#1389</styleUrl>
            <Polygon id="1383">
                <altitudeMode>clampToGround</altitudeMode>
                <outerBoundaryIs>
                    <LinearRing id="1387">
                        <coordinates>131.01307507079085,31.220259744337127,0.0 131.01314673380057,31.220062566513903,0.0 131.0134403660402,31.2201914608972,0.0 131.01376256376156,31.22054100927756,0.0 131.01395621319278,31.220952556009568,0.0 131.013943120239,31.221231523390035,0.0 131.01370266350037,31.221182579178933,0.0 131.01331176965667,31.220758383792248,0.0 131.01307507079085,31.220259744337127,0.0</coordinates>
                    </LinearRing>
                </outerBoundaryIs>
            </Polygon>
        </Placemark>
        <Placemark id="1393">
            <name>(5.0,)</name>
            <styleUrl>#1398</styleUrl>
            <Polygon id="1392">
                <altitudeMode>clampToGround</altitudeMode>
                <outerBoundaryIs>
                    <LinearRing id="1396">
                        <coordinates>131.01287862097828,31.22019952591136,0.0 131.01299018785383,31.219967021342285,0.0 131.01336501089858,31.220123970962263,0.0 131.01376153105068,31.22054014717399,0.0 131.01398547993236,31.221039417582585,0.0 131.0139605429637,31.221391021746275,0.0 131.01366371081645,31.221351536997247,0.0 131.01316400539,31.22082756721109,0.0 131.01287862097828,31.22019952591136,0.0</coordinates>
                    </LinearRing>
                </outerBoundaryIs>
            </Polygon>
        </Placemark>
        <Placemark id="1402">
            <name>(6.0,)</name>
            <styleUrl>#1407</styleUrl>
            <Polygon id="1401">
                <altitudeMode>clampToGround</altitudeMode>
                <outerBoundaryIs>
                    <LinearRing id="1405">
                        <coordinates>131.01267150115623,31.22015261493481,0.0 131.01283046057233,31.21988889125697,0.0 131.0132870226498,31.22006686871122,0.0 131.01375696349277,31.220541188652007,0.0 131.01400763122084,31.22112285359028,0.0 131.0139589599797,31.22154430768076,0.0 131.0136078500077,31.221523511136063,0.0 131.01308404998994,31.220862147234552,0.0 131.01267150115623,31.22015261493481,0.0</coordinates>
                    </LinearRing>
                </outerBoundaryIs>
            </Polygon>
        </Placemark>
        <Placemark id="1411">
            <name>(7.0,)</name>
            <styleUrl>#1416</styleUrl>
            <Polygon id="1410">
                <altitudeMode>clampToGround</altitudeMode>
                <outerBoundaryIs>
                    <LinearRing id="1414">
                        <coordinates>131.0124556794015,31.22011592755488,0.0 131.0126716895451,31.21982256585272,0.0 131.01321040016947,31.220015757266967,0.0 131.0137462425076,31.220545479225088,0.0 131.01402015818095,31.221202936113706,0.0 131.01394591019076,31.221690819101745,0.0 131.01353643340627,31.22169495032073,0.0 131.01273769193935,31.22093387314577,0.0 131.0124556794015,31.22011592755488,0.0</coordinates>
                    </LinearRing>
                </outerBoundaryIs>
            </Polygon>
        </Placemark>
        <Placemark id="1420">
            <name>(8.0,)</name>
            <styleUrl>#1425</styleUrl>
            <Polygon id="1419">
                <altitudeMode>clampToGround</altitudeMode>
                <outerBoundaryIs>
                    <LinearRing id="1423">
                        <coordinates>131.0122366154168,31.220091413842614,0.0 131.01251490135795,31.219773683568647,0.0 131.01313362257687,31.219973455488656,0.0 131.01373001117875,31.220552648532344,0.0 131.01402382643172,31.22127917789149,0.0 131.01392000220991,31.22182877729592,0.0 131.01345121580633,31.22186277107794,0.0 131.012611572364,31.221208491552733,0.0 131.0122366154168,31.220091413842614,0.0</coordinates>
                    </LinearRing>
                </outerBoundaryIs>
            </Polygon>
        </Placemark>
    </Document>
</kml>
