<?xml version="1.0" encoding="UTF-8"?>
<kml xmlns="http://www.opengis.net/kml/2.2" xmlns:gx="http://www.google.com/kml/ext/2.2">
    <Document id="96">
        <Style id="99">
            <IconStyle id="100">
                <color>ff8070f8</color>
                <colorMode>normal</colorMode>
                <scale>1</scale>
                <heading>0</heading>
                <Icon id="101">
                    <href>http://maps.google.com/mapfiles/kml/pushpin/ylw-pushpin.png</href>
                </Icon>
            </IconStyle>
        </Style>
        <Placemark id="98">
            <name/>
            <styleUrl>#99</styleUrl>
            <Point id="97">
                <coordinates>131.01201836245988,31.22074009273172,0.0</coordinates>
            </Point>
        </Placemark>
    </Document>
</kml>
