<?xml version="1.0" encoding="UTF-8"?>
<kml xmlns="http://www.opengis.net/kml/2.2" xmlns:gx="http://www.google.com/kml/ext/2.2">
    <Document id="2069">
        <Style id="2076">
            <LineStyle id="2077">
                <color>ff8070f8</color>
                <colorMode>normal</colorMode>
                <width>3</width>
            </LineStyle>
            <PolyStyle id="2078">
                <colorMode>normal</colorMode>
                <fill>0</fill>
                <outline>1</outline>
            </PolyStyle>
        </Style>
        <Style id="2085">
            <LineStyle id="2086">
                <color>ff816df7</color>
                <colorMode>normal</colorMode>
                <width>3</width>
            </LineStyle>
            <PolyStyle id="2087">
                <colorMode>normal</colorMode>
                <fill>0</fill>
                <outline>1</outline>
            </PolyStyle>
        </Style>
        <Style id="2094">
            <LineStyle id="2095">
                <color>ff836af7</color>
                <colorMode>normal</colorMode>
                <width>3</width>
            </LineStyle>
            <PolyStyle id="2096">
                <colorMode>normal</colorMode>
                <fill>0</fill>
                <outline>1</outline>
            </PolyStyle>
        </Style>
        <Style id="2103">
            <LineStyle id="2104">
                <color>ff8467f7</color>
                <colorMode>normal</colorMode>
                <width>3</width>
            </LineStyle>
            <PolyStyle id="2105">
                <colorMode>normal</colorMode>
                <fill>0</fill>
                <outline>1</outline>
            </PolyStyle>
        </Style>
        <Style id="2112">
            <LineStyle id="2113">
                <color>ff8665f7</color>
                <colorMode>normal</colorMode>
                <width>3</width>
            </LineStyle>
            <PolyStyle id="2114">
                <colorMode>normal</colorMode>
                <fill>0</fill>
                <outline>1</outline>
            </PolyStyle>
        </Style>
        <Style id="2121">
            <LineStyle id="2122">
                <color>ff8762f7</color>
                <colorMode>normal</colorMode>
                <width>3</width>
            </LineStyle>
            <PolyStyle id="2123">
                <colorMode>normal</colorMode>
                <fill>0</fill>
                <outline>1</outline>
            </PolyStyle>
        </Style>
        <Style id="2130">
            <LineStyle id="2131">
                <color>ff895ff7</color>
                <colorMode>normal</colorMode>
                <width>3</width>
            </LineStyle>
            <PolyStyle id="2132">
                <colorMode>normal</colorMode>
                <fill>0</fill>
                <outline>1</outline>
            </PolyStyle>
        </Style>
        <Style id="2139">
            <LineStyle id="2140">
                <color>ff8b5df7</color>
                <colorMode>normal</colorMode>
                <width>3</width>
            </LineStyle>
            <PolyStyle id="2141">
                <colorMode>normal</colorMode>
                <fill>0</fill>
                <outline>1</outline>
            </PolyStyle>
        </Style>
        <Placemark id="2071">
            <name>(1.0,)</name>
            <styleUrl>#2076</styleUrl>
            <Polygon id="2070">
                <altitudeMode>clampToGround</altitudeMode>
                <outerBoundaryIs>
                    <LinearRing id="2074">
                        <coordinates>131.01330533793808,31.220622335137687,0.0 131.0133267628511,31.22055504865676,0.0 131.01340716910923,31.2205794246684,0.0 131.01349899511544,31.22067662542401,0.0 131.01355174517218,31.22079302000944,0.0 131.01353623347205,31.220864524963755,0.0 131.01345712512395,31.220846597032114,0.0 131.01335945157587,31.22074517228282,0.0 131.01330533793808,31.220622335137687,0.0</coordinates>
                    </LinearRing>
                </outerBoundaryIs>
            </Polygon>
        </Placemark>
        <Placemark id="2080">
            <name>(2.0,)</name>
            <styleUrl>#2085</styleUrl>
            <Polygon id="2079">
                <altitudeMode>clampToGround</altitudeMode>
                <outerBoundaryIs>
                    <LinearRing id="2083">
                        <coordinates>131.01314901043773,31.220542208821445,0.0 131.0131988010708,31.220412992418183,0.0 131.01336249711997,31.220465359026026,0.0 131.0135427825217,31.22065280920961,0.0 131.0136430202276,31.220879431524004,0.0 131.01361417150167,31.22102610089151,0.0 131.0134577983032,31.220997516116263,0.0 131.01325880380165,31.2207917423372,0.0 131.01314901043773,31.220542208821445,0.0</coordinates>
                    </LinearRing>
                </outerBoundaryIs>
            </Polygon>
        </Placemark>
        <Placemark id="2089">
            <name>(3.0,)</name>
            <styleUrl>#2094</styleUrl>
            <Polygon id="2088">
                <altitudeMode>clampToGround</altitudeMode>
                <outerBoundaryIs>
                    <LinearRing id="2092">
                        <coordinates>131.01297385144608,31.22046973315684,0.0 131.0130588264794,31.22028456541174,0.0 131.01330839102732,31.220365645615846,0.0 131.01357161516776,31.220636660439624,0.0 131.01371480306076,31.22096580822941,0.0 131.01367251418367,31.221189391233203,0.0 131.01344285814503,31.22115875427601,0.0 131.01313228863603,31.2208507620986,0.0 131.01297385144608,31.22046973315684,0.0</coordinates>
                    </LinearRing>
                </outerBoundaryIs>
            </Polygon>
        </Placemark>
        <Placemark id="2098">
            <name>(4.0,)</name>
            <styleUrl>#2103</styleUrl>
            <Polygon id="2097">
                <altitudeMode>clampToGround</altitudeMode>
                <outerBoundaryIs>
                    <LinearRing id="2101">
                        <coordinates>131.0127822837418,31.220404380951592,0.0 131.01291014897194,31.22017158240327,0.0 131.01324665159297,31.22028043300555,0.0 131.01358924826852,31.220626257956248,0.0 131.01376893745586,31.221051162683267,0.0 131.01371097562173,31.221351432958112,0.0 131.013409403357,31.22132695022176,0.0 131.01298222740888,31.220921407763868,0.0 131.0127822837418,31.220404380951592,0.0</coordinates>
                    </LinearRing>
                </outerBoundaryIs>
            </Polygon>
        </Placemark>
        <Placemark id="2107">
            <name>(5.0,)</name>
            <styleUrl>#2112</styleUrl>
            <Polygon id="2106">
                <altitudeMode>clampToGround</altitudeMode>
                <outerBoundaryIs>
                    <LinearRing id="2110">
                        <coordinates>131.0125784608875,31.22035176013493,0.0 131.0127560564509,31.220075721505523,0.0 131.01318082292028,31.220206657015154,0.0 131.01360082946772,31.220619054077872,0.0 131.01380944313993,31.22113396077049,0.0 131.01373260300758,31.221509618118983,0.0 131.01336045532173,31.221499442267103,0.0 131.01284564716786,31.220985046371982,0.0 131.0125784608875,31.22035176013493,0.0</coordinates>
                    </LinearRing>
                </outerBoundaryIs>
            </Polygon>
        </Placemark>
        <Placemark id="2116">
            <name>(6.0,)</name>
            <styleUrl>#2121</styleUrl>
            <Polygon id="2115">
                <altitudeMode>clampToGround</altitudeMode>
                <outerBoundaryIs>
                    <LinearRing id="2119">
                        <coordinates>131.01236527134503,31.220308084521303,0.0 131.0126005060083,31.21999454122813,0.0 131.01311215816932,31.220143377737685,0.0 131.01360400337427,31.22061623331976,0.0 131.01384216100948,31.22121361611909,0.0 131.01373603305416,31.221661255540976,0.0 131.01329671264247,31.221673172661223,0.0 131.01281692773637,31.22090142578752,0.0 131.01236527134503,31.220308084521303,0.0</coordinates>
                    </LinearRing>
                </outerBoundaryIs>
            </Polygon>
        </Placemark>
        <Placemark id="2125">
            <name>(7.0,)</name>
            <styleUrl>#2130</styleUrl>
            <Polygon id="2124">
                <altitudeMode>clampToGround</altitudeMode>
                <outerBoundaryIs>
                    <LinearRing id="2128">
                        <coordinates>131.01214836222533,31.220277452186824,0.0 131.01244640974002,31.219931591541663,0.0 131.0130441090626,31.22008654144601,0.0 131.0136082177363,31.220613121061216,0.0 131.01385970187127,31.221290162002912,0.0 131.01372545243296,31.22180480965048,0.0 131.01321854268394,31.221842681199984,0.0 131.01271364424963,31.22108781854984,0.0 131.01214836222533,31.220277452186824,0.0</coordinates>
                    </LinearRing>
                </outerBoundaryIs>
            </Polygon>
        </Placemark>
        <Placemark id="2134">
            <name>(8.0,)</name>
            <styleUrl>#2139</styleUrl>
            <Polygon id="2133">
                <altitudeMode>clampToGround</altitudeMode>
                <outerBoundaryIs>
                    <LinearRing id="2137">
                        <coordinates>131.01192973973198,31.220256613693177,0.0 131.01229506209222,31.219875692318336,0.0 131.01297537868066,31.220037704721346,0.0 131.0136020012552,31.220615285411643,0.0 131.01387808279532,31.221363274339925,0.0 131.01370154220632,31.221938278897326,0.0 131.01312978410843,31.222008671248616,0.0 131.01231642329867,31.221235007499203,0.0 131.01192973973198,31.220256613693177,0.0</coordinates>
                    </LinearRing>
                </outerBoundaryIs>
            </Polygon>
        </Placemark>
    </Document>
</kml>
