<?xml version="1.0" encoding="UTF-8"?>
<kml xmlns="http://www.opengis.net/kml/2.2" xmlns:gx="http://www.google.com/kml/ext/2.2">
    <Document id="62">
        <Style id="65">
            <IconStyle id="66">
                <color>ff8070f8</color>
                <colorMode>normal</colorMode>
                <scale>1</scale>
                <heading>0</heading>
                <Icon id="67">
                    <href>http://maps.google.com/mapfiles/kml/pushpin/ylw-pushpin.png</href>
                </Icon>
            </IconStyle>
        </Style>
        <Placemark id="64">
            <name/>
            <styleUrl>#65</styleUrl>
            <Point id="63">
                <coordinates>131.01322868161986,31.219596634148697,0.0</coordinates>
            </Point>
        </Placemark>
    </Document>
</kml>
