<?xml version="1.0" encoding="UTF-8"?>
<kml xmlns="http://www.opengis.net/kml/2.2" xmlns:gx="http://www.google.com/kml/ext/2.2">
    <Document id="641">
        <Style id="648">
            <LineStyle id="649">
                <color>ff8070f8</color>
                <colorMode>normal</colorMode>
                <width>3</width>
            </LineStyle>
            <PolyStyle id="650">
                <colorMode>normal</colorMode>
                <fill>0</fill>
                <outline>1</outline>
            </PolyStyle>
        </Style>
        <Style id="657">
            <LineStyle id="658">
                <color>ff816df7</color>
                <colorMode>normal</colorMode>
                <width>3</width>
            </LineStyle>
            <PolyStyle id="659">
                <colorMode>normal</colorMode>
                <fill>0</fill>
                <outline>1</outline>
            </PolyStyle>
        </Style>
        <Style id="666">
            <LineStyle id="667">
                <color>ff836af7</color>
                <colorMode>normal</colorMode>
                <width>3</width>
            </LineStyle>
            <PolyStyle id="668">
                <colorMode>normal</colorMode>
                <fill>0</fill>
                <outline>1</outline>
            </PolyStyle>
        </Style>
        <Style id="675">
            <LineStyle id="676">
                <color>ff8467f7</color>
                <colorMode>normal</colorMode>
                <width>3</width>
            </LineStyle>
            <PolyStyle id="677">
                <colorMode>normal</colorMode>
                <fill>0</fill>
                <outline>1</outline>
            </PolyStyle>
        </Style>
        <Style id="684">
            <LineStyle id="685">
                <color>ff8665f7</color>
                <colorMode>normal</colorMode>
                <width>3</width>
            </LineStyle>
            <PolyStyle id="686">
                <colorMode>normal</colorMode>
                <fill>0</fill>
                <outline>1</outline>
            </PolyStyle>
        </Style>
        <Style id="693">
            <LineStyle id="694">
                <color>ff8762f7</color>
                <colorMode>normal</colorMode>
                <width>3</width>
            </LineStyle>
            <PolyStyle id="695">
                <colorMode>normal</colorMode>
                <fill>0</fill>
                <outline>1</outline>
            </PolyStyle>
        </Style>
        <Style id="702">
            <LineStyle id="703">
                <color>ff895ff7</color>
                <colorMode>normal</colorMode>
                <width>3</width>
            </LineStyle>
            <PolyStyle id="704">
                <colorMode>normal</colorMode>
                <fill>0</fill>
                <outline>1</outline>
            </PolyStyle>
        </Style>
        <Style id="711">
            <LineStyle id="712">
                <color>ff8b5df7</color>
                <colorMode>normal</colorMode>
                <width>3</width>
            </LineStyle>
            <PolyStyle id="713">
                <colorMode>normal</colorMode>
                <fill>0</fill>
                <outline>1</outline>
            </PolyStyle>
        </Style>
        <Placemark id="643">
            <name>(1.0,)</name>
            <styleUrl>#648</styleUrl>
            <Polygon id="642">
                <altitudeMode>clampToGround</altitudeMode>
                <outerBoundaryIs>
                    <LinearRing id="646">
                        <coordinates>131.01378931654304,31.220385996374183,0.0 131.01378328670637,31.22033382215432,0.0 131.01383679330243,31.220370546951404,0.0 131.01391770940273,31.22047002523432,0.0 131.0139782207739,31.22057946043593,0.0 131.0139886162938,31.22063714165894,0.0 131.0139385390599,31.220606435300496,0.0 131.01385382068688,31.220501136446423,0.0 131.01378931654304,31.220385996374183,0.0</coordinates>
                    </LinearRing>
                </outerBoundaryIs>
            </Polygon>
        </Placemark>
        <Placemark id="652">
            <name>(2.0,)</name>
            <styleUrl>#657</styleUrl>
            <Polygon id="651">
                <altitudeMode>clampToGround</altitudeMode>
                <outerBoundaryIs>
                    <LinearRing id="655">
                        <coordinates>131.01366104192513,31.22029377791741,0.0 131.0136545660262,31.220196233530448,0.0 131.01376771402892,31.220272419278498,0.0 131.0139251054546,31.22046437230581,0.0 131.01404109461694,31.220676088461,0.0 131.01406180426287,31.22079723114383,0.0 131.01396554707577,31.220743016238,0.0 131.01379603355812,31.22052653833905,0.0 131.01366104192513,31.22029377791741,0.0</coordinates>
                    </LinearRing>
                </outerBoundaryIs>
            </Polygon>
        </Placemark>
        <Placemark id="661">
            <name>(3.0,)</name>
            <styleUrl>#666</styleUrl>
            <Polygon id="660">
                <altitudeMode>clampToGround</altitudeMode>
                <outerBoundaryIs>
                    <LinearRing id="664">
                        <coordinates>131.01351237001924,31.22020736814653,0.0 131.01351212350949,31.220072655795743,0.0 131.01369262230253,31.22018660207156,0.0 131.01392486212316,31.22046273645736,0.0 131.01408912450083,31.220771647904822,0.0 131.01411402143205,31.22096010789144,0.0 131.01397653885428,31.220890787690887,0.0 131.01371755442307,31.220561796565164,0.0 131.01351237001924,31.22020736814653,0.0</coordinates>
                    </LinearRing>
                </outerBoundaryIs>
            </Polygon>
        </Placemark>
        <Placemark id="670">
            <name>(4.0,)</name>
            <styleUrl>#675</styleUrl>
            <Polygon id="669">
                <altitudeMode>clampToGround</altitudeMode>
                <outerBoundaryIs>
                    <LinearRing id="673">
                        <coordinates>131.0133435639138,31.22012991178737,0.0 131.01336061059044,31.219963014796377,0.0 131.01361104559248,31.22011462490108,0.0 131.0139161901772,31.22046550528809,0.0 131.0141198930201,31.220865269921333,0.0 131.01414818070995,31.22112292968282,0.0 131.01396875445968,31.221048994659206,0.0 131.01361558626607,31.220608254802737,0.0 131.0133435639138,31.22012991178737,0.0</coordinates>
                    </LinearRing>
                </outerBoundaryIs>
            </Polygon>
        </Placemark>
        <Placemark id="679">
            <name>(5.0,)</name>
            <styleUrl>#684</styleUrl>
            <Polygon id="678">
                <altitudeMode>clampToGround</altitudeMode>
                <outerBoundaryIs>
                    <LinearRing id="682">
                        <coordinates>131.01315727104523,31.220063105560783,0.0 131.01320123533358,31.219869940106506,0.0 131.01352629447564,31.220053068229127,0.0 131.01390339881578,31.22047049951314,0.0 131.01414270271678,31.220955345407862,0.0 131.0141649568561,31.22128345298383,0.0 131.01394338178258,31.221215023088977,0.0 131.0134875368838,31.220667429979617,0.0 131.01315727104523,31.220063105560783,0.0</coordinates>
                    </LinearRing>
                </outerBoundaryIs>
            </Polygon>
        </Placemark>
        <Placemark id="688">
            <name>(6.0,)</name>
            <styleUrl>#693</styleUrl>
            <Polygon id="687">
                <altitudeMode>clampToGround</altitudeMode>
                <outerBoundaryIs>
                    <LinearRing id="691">
                        <coordinates>131.0129564130855,31.22000791040628,0.0 131.01303880087775,31.21979147917548,0.0 131.01344267851275,31.21999859369795,0.0 131.01388396710763,31.220478968196083,0.0 131.0141507653054,31.221042594537863,0.0 131.0141624131464,31.221438893312303,0.0 131.01389749752235,31.221384438981048,0.0 131.01334396372084,31.22073425944375,0.0 131.0129564130855,31.22000791040628,0.0</coordinates>
                    </LinearRing>
                </outerBoundaryIs>
            </Polygon>
        </Placemark>
        <Placemark id="697">
            <name>(7.0,)</name>
            <styleUrl>#702</styleUrl>
            <Polygon id="696">
                <altitudeMode>clampToGround</altitudeMode>
                <outerBoundaryIs>
                    <LinearRing id="700">
                        <coordinates>131.01274534026783,31.219965862652515,0.0 131.01287595809205,31.219727530478487,0.0 131.01335569884102,31.219956910661296,0.0 131.01386268890005,31.22048851464321,0.0 131.0141536799902,31.2211256231498,0.0 131.01414487207975,31.22158711241128,0.0 131.0138339436891,31.221554831788502,0.0 131.01340630685635,31.220775822009383,0.0 131.01274534026783,31.219965862652515,0.0</coordinates>
                    </LinearRing>
                </outerBoundaryIs>
            </Polygon>
        </Placemark>
        <Placemark id="706">
            <name>(8.0,)</name>
            <styleUrl>#711</styleUrl>
            <Polygon id="705">
                <altitudeMode>clampToGround</altitudeMode>
                <outerBoundaryIs>
                    <LinearRing id="709">
                        <coordinates>131.01252820014392,31.21993670755325,0.0 131.01271476560163,31.2196781847652,0.0 131.01327137846363,31.219920133350275,0.0 131.01383621485556,31.220500790453286,0.0 131.0141480025112,31.221204535304047,0.0 131.0141135824747,31.22172628457788,0.0 131.01375448887904,31.22172319022908,0.0 131.01305904174143,31.220785289768788,0.0 131.01252820014392,31.21993670755325,0.0</coordinates>
                    </LinearRing>
                </outerBoundaryIs>
            </Polygon>
        </Placemark>
    </Document>
</kml>
